STARLETTE               
1 07646U 75010A   19301.86588853 -.00000137  00000-0  46175-5 0  9991
2 07646  49.8245 309.4823 0205749 337.8218  21.3872 13.82306687259334
LAGEOS 1                
1 08820U 76039A   19301.79951091 -.00000001  00000-0  00000-0 0  9990
2 08820 109.8572  69.2357 0044053 100.7581 198.0645  6.38664926758689
AJISAI (EGS)            
1 16908U 86061A   19302.57524247 -.00000103  00000-0 -39420-4 0  9994
2 16908  50.0115  36.6771 0011514 134.0372 326.4506 12.44490507179076
LAGEOS 2                
1 22195U 92070B   19301.78783763 -.00000009  00000-0  00000-0 0  9990
2 22195  52.6775 358.2234 0138366 207.4712  77.5812  6.47293561638741
STELLA                  
1 22824U 93061B   19302.53007611 -.00000039  00000-0  30216-5 0  9995
2 22824  98.9390 282.8628 0007344  63.4854  52.5015 14.27378587359313
LARES                   
1 38077U 12006A   19302.42153194 -.00000007  00000-0  19513-3 0  9998
2 38077  69.4920 110.5380 0009289 183.7240 176.3722 12.54931524353205
